#cP2010  5  2  0  0  0.00000000      96 ORBIT IGS05 HLM  IGS
## 1582      0.00000000   900.00000000 55318 0.0000000000000
+   31   G01G02G03G04G05G06G07G08G09G10G11G12G13G14G15G16G17
+        G18G19G20G21G22G23G24G26G27G28G29G30G31G32  0  0  0
+          0  0  0  0  0  0  0  0  0  0  0  0  0  0  0  0  0
+          0  0  0  0  0  0  0  0  0  0  0  0  0  0  0  0  0
+          0  0  0  0  0  0  0  0  0  0  0  0  0  0  0  0  0
++         5  2  2  2  3  2  2  3  3  2  2  2  2  3  2  2  2
++         2  2  2  2  2  2  2  2  3  2  2  2  2  2  0  0  0
++         0  0  0  0  0  0  0  0  0  0  0  0  0  0  0  0  0
++         0  0  0  0  0  0  0  0  0  0  0  0  0  0  0  0  0
++         0  0  0  0  0  0  0  0  0  0  0  0  0  0  0  0  0
%c G  cc GPS ccc cccc cccc cccc cccc ccccc ccccc ccccc ccccc
%c cc cc ccc ccc cccc cccc cccc cccc ccccc ccccc ccccc ccccc
%f  1.2500000  1.025000000  0.00000000000  0.000000000000000
%f  0.0000000  0.000000000  0.00000000000  0.000000000000000
%i    0    0    0    0      0      0      0      0         0
%i    0    0    0    0      0      0      0      0         0
/* FINAL ORBIT COMBINATION FROM WEIGHTED AVERAGE OF:        
/* cod emr esa gfz grg jpl mit ngs sio                      
/* REFERENCED TO IGS TIME (IGST) AND TO WEIGHTED MEAN POLE: 
/* PCV:IGS05_1581 OL/AL:FES2004  NONE     Y  ORB:CMB CLK:CMB
*  2010  5  2 16 30  0.00000000
PG01  -3675.425735 -14873.322935 -21813.758694 999999.999999
PG02  14373.329519   8307.269436 -20838.038283    251.987643  4  6  5  47       
PG03 -24354.210232  -8853.489996   6235.407330    549.693639  6  5  4  74       
PG04   7453.019724  21307.173435 -13874.920840     73.094029  5  4  7 110       
PG05  23201.567136    118.795048 -13024.357083     -2.249198  5  2  7 121       
PG06 -23222.379929 -12548.760528   3754.735960    651.088783  6  4  5 113       
PG07  -6544.612330  25219.195507  -4697.615724     -0.097427  8 10  4 117       
PG08    256.765460  25053.920255   7938.597588      5.195319  5  6  8 120       
PG09  13985.534269 -11015.512531  19155.145890      4.187861  4  7  7 109       
PG10  17435.182375   7545.367184 -18880.943102    -41.669024  3  5  5  84       
PG11 -12383.391591  15570.778427  17178.149514    -60.079867  3  6  4 113       
PG12  23353.988480 -12002.876532  -3355.605820   -119.923736  8  9  7  99       
PG13  -5331.674578  14298.379621 -21873.934119    304.834704  5 10  5 100       
PG14 -13080.843167 -20477.565528  11010.924966     40.920618  6  9  8 107       
PG15  21664.743746   2502.822031  15255.604671   -278.774700  3  7  5 126       
PG16 -19791.126243  -4874.191697 -17133.244524    -67.464395  4  6  6  91       
PG17  12692.444778  20465.936416  11535.863789    148.206520  4  8  6 135       
PG18   9590.075298 -17575.182639  17531.191400     65.679675  6 10  5 101       
PG19 -20868.213806  -3215.867237  16331.444543    -32.115428  5  6  5 115       
PG20 -21525.319479  14455.742086  -5762.706284     56.775319  5  9  3  95       
PG21   3719.226243 -25944.297878    -62.786064    -57.421867  6 10  3 105       
PG22  -3296.651197 -15623.970530  21379.310004    173.093401  6  8  3 117       
PG23 -13766.393384   7934.866054 -21359.445070    372.260949  6  9  3 133       
PG24    261.037469 -26015.027739   6099.157764    283.939985  5  5  7  71       
PG26  13419.290516  -6884.325383  21359.222401    -46.674326  4  6  3 105       
PG27  14967.811718  -7166.335457  21388.704938    148.333911  5  8  6 122       
PG28    630.606557  15748.682473  21816.459516    -17.176620  2  8  5  94       
PG29   5971.560347 -14435.404486 -21390.228645    116.995447  8  6  4 119       
PG30  15499.830931 -17459.046986 -13006.741794    238.991821  7  3  6 119       
PG31  -8000.678438 -19746.227069 -15538.387608    -38.859754  5  7  5 121       
PG32 -25492.030767   6473.767835   2331.174320     38.352513  6  5  6 120       
*  2010  5  2 16 45  0.00000000
PG01  -1439.645943 -15862.563942 -21359.350484 999999.999999
PG02  14113.474983  10621.545626 -19986.087390    251.990763  4  6  6  86       
PG03 -24726.050312  -9419.851432   3543.343066    549.697937  6  5  4  91       
PG04   7040.803363  22724.199507 -11597.781193     73.101699  5  4  6  97       
PG05  21821.937634    968.425278 -15188.609962     -2.249634  6  3  7 131       
PG06 -23263.605799 -12951.249753    978.506201    651.079368  5  4  5 114       
PG07  -6703.208917  24503.053309  -7470.518762     -0.097759  8 10  4 108       
PG08    -59.162336  25769.340840   5119.660318      5.194395  5  6  8 129       
PG09  13923.636314  -8649.095480  20348.819994      4.191295  4  8  6 101       
PG10  15465.230864   8505.073837 -20128.675664    -41.669293  5  4  5  90       
PG11 -12918.886152  13497.923723  18501.379891    -60.082056  2  6  4 109       
PG12  23657.721723 -11876.999022   -482.580279   -119.919770  7 10  6 109       
PG13  -7270.468450  12738.613177 -22280.163977    304.834323  4 10  4  93       
PG14 -11914.744617 -19742.535279  13428.894615     40.924553  7  9  8 109       
PG15  22885.520748   3584.256015  13115.124055   -278.770104  3  6  5 129       
PG16 -17949.807992  -5783.698034 -18770.282913    -67.467833  4  7  5 100       
PG17  11429.605295  19766.264910  13845.231474    148.208805  4  8  6 135       
PG18  11401.520328 -18119.096258  15742.783620     65.681953  5 10  6  98       
PG19 -22093.880364  -4459.975502  14324.810564    -32.117838  5  6  5 121       
PG20 -22104.519644  14389.317728  -3010.453701     56.774745  4  9  4  78       
PG21   4079.571714 -25696.165715  -2892.014880    -57.424483  6 10  3 109       
PG22  -1068.868382 -16510.027482  20924.740919    173.092470  6  9  4 107       
PG23 -15666.038830   6493.950232 -20547.889397    372.259814  6  8  3 134       
PG24    594.590397 -26499.307776   3348.822840    283.942673  5  5  7 108       
PG26  15336.424771  -5275.372447  20569.890595    -46.678966  4  7  4 104       
PG27  14918.681325  -4823.437780  22103.827338    148.336094  5  8  6 107       
PG28  -1570.192737  16597.338575  21087.076927    -17.175417  3  9  5  84       
PG29   7966.463260 -12953.996634 -21681.933053    116.998199  7  6  4 119       
PG30  16757.595477 -17854.818577 -10612.703991    238.996102  6  4  5 127       
PG31  -7664.523201 -21411.257507 -13365.300448    -38.857665  4  7  5 128       
PG32 -25213.836482   6078.866028   5161.361490     38.344748  5  5  6 114       
*  2010  5  2 17  0  0.00000000
PG01    678.960255 -16935.522830 -20540.877980 999999.999999
PG02  13971.312559  12827.283064 -18794.551470    251.994163  5  7  6 102       
PG03 -24849.075390  -9834.365076    791.176240    549.701465  6  5  4  80       
PG04   6706.183964  23892.316511  -9118.939439     73.109472  6  3  6 110       
PG05  20285.544544   1997.267712 -17092.790382     -2.250164  6  5  7 112       
PG06 -23050.549638 -13199.636778  -1814.392695    651.070080  5  4  6 114       
PG07  -6887.806817  23488.752244 -10113.669088     -0.098212  8 10  4 111       
PG08   -300.706103  26173.501054   2209.699511      5.195011  5  6  7 124       
PG09  13988.613917  -6163.631492  21174.797515      4.193330  5  8  6  99       
PG10  13438.021417   9620.961079 -21038.126042    -41.669514  5  5  5  99       
PG11 -13559.906571  11320.786995  19496.517328    -60.084539     6  5 104       
PG12  23677.029629 -11616.819617   2398.837681   -119.915624  6 10  6 103       
PG13  -9315.353366  11278.824779 -22307.935675    304.834090  4 10  4 102       
PG14 -10495.530411 -18926.896588  15618.966293     40.928573  7 10  7 102       
PG15  23942.336855   4470.070667  10750.433878   -278.765351  4  6  5 132       
PG16 -16009.131287  -6867.520862 -20086.039027    -67.471407  4  7  5 112       
PG17   9925.668353  18998.293506  15920.109679    148.210985  4  8  6 139       
PG18  12994.979745 -18653.006032  13683.876741     65.684548  5 10  6 106       
PG19 -23189.912574  -5495.093286  12075.658840    -32.120391  4  6  5 123       
PG20 -22414.449489  14194.895994   -206.322526     56.773744  4  8  4  94       
PG21   4436.675912 -25143.298914  -5669.234272    -57.426555  6  9  4  95       
PG22   1051.022096 -17472.075260  20114.748309    173.091395  6  9  4 109       
PG23 -17544.219651   5218.400551 -19386.007572    372.258730  6  8  4 131       
PG24    876.313369 -26689.333884    541.859783    283.944807  5  5  6 121       
PG26  17243.878674  -3845.703600  19411.612062    -46.683202  4  6  4 113       
PG27  15003.341826  -2425.364884  22460.842840    148.339065  5  8  5 120       
PG28  -3635.073158  17521.906585  20007.670546    -17.174730  3  9  5  91       
PG29  10045.461080 -11570.965656 -21597.326047    117.000515  7  6  4 120       
PG30  17755.895696 -18172.405467  -8038.645206    239.000359  6  4  5 121       
PG31  -7429.159840 -22829.369816 -10957.415486    -38.855833  4  8  5 126       
PG32 -24664.655541   5549.581778   7901.584588     38.337130  6  5  6 125       
EOF
